STARLINK-1749
1 26589C 20070BK  21325.17134240 -.00020021  00000-0 -13418-2 0  3255
2 26589  53.0545   2.4593 0001457  55.6198  40.4233 15.06409081    11
